STARLINK-32430          
1 62207U 24229R   25257.10861286  .00014886  00000+0  54922-3 0  9990
2 62207  43.0068 184.6634 0000816 288.2234  71.8529 15.27590311 43593
STARLINK-32675          
1 62208U 24229S   25257.09272168  .00020545  00000+0  75407-3 0  9994
2 62208  42.9987 187.9971 0003398 280.5135  79.5334 15.27575280 43558
STARLINK-32671          
1 62209U 24229T   25256.54021623  .00024034  00000+0  88005-3 0  9997
2 62209  42.9983 191.5903 0000512  44.4622 315.6270 15.27579928 43460
STARLINK-32670          
1 62210U 24229U   25257.15039843  .00024427  00000+0  89376-3 0  9998
2 62210  42.9991 187.5719 0001373 256.4486 103.6213 15.27597864 43562
STARLINK-32642          
1 62211U 24229V   25257.20934070  .00029062  00000+0  10605-2 0  9999
2 62211  43.0006 187.1569 0001521 260.5316  99.5363 15.27609363 43572
STARLINK-32668          
1 62212U 24229W   25257.11246736  .00024410  00000+0  89309-3 0  9995
2 62212  43.0002 184.6919 0000853 246.9822 113.0940 15.27600227 43592
STARLINK-32669          
1 62213U 24229X   25257.18378861  .00016299  00000+0  60021-3 0  9994
2 62213  42.9998 187.8178 0001366 244.5976 115.4734 15.27595806 43561
STARLINK-32666          
1 62214U 24229Y   25257.19022124  .00025074  00000+0  91656-3 0  9993
2 62214  43.0013 187.8684 0001347 256.6346 103.4356 15.27617874 43565
STARLINK-32662          
1 62215U 24229Z   25257.17607838  .00013892  00000+0  51310-3 0  9991
2 62215  42.9997 187.7580 0001231 272.5481  87.5230 15.27598272 43561
STARLINK-11394 [DTC]    
1 62218U 24231A   25257.27660457  .00161246  00000+0  13081-2 0  9993
2 62218  53.1573 250.9335 0000988 302.5376  57.5547 15.69746868 45702
STARLINK-11490 [DTC]    
1 62219U 24231B   25257.28151005  .00170419  00000+0  13770-2 0  9996
2 62219  53.1567 250.9654 0002451 103.6786 256.4505 15.69810924 45701
STARLINK-11466 [DTC]    
1 62220U 24231C   25257.29132188  .00215883  00000+0  17387-2 0  9993
2 62220  53.1557 251.0294 0000803  43.4444 316.6637 15.69738248 45708
STARLINK-11468 [DTC]    
1 62221U 24231D   25257.23746122  .00280085  00000+0  22281-2 0  9992
2 62221  53.1565 251.4077 0000949 142.9568 217.1515 15.69833516 45696
STARLINK-11488 [DTC]    
1 62222U 24231E   25257.28641082  .00177587  00000+0  14294-2 0  9994
2 62222  53.1566 250.9954 0002436 174.2953 185.8093 15.69878709 45702
STARLINK-11483 [DTC]    
1 62223U 24231F   25257.25207641  .00143391  00000+0  11610-2 0  9996
2 62223  53.1559 250.7702 0004515  97.0863 263.0668 15.69847538 45709
STARLINK-11492 [DTC]    
1 62224U 24231G   25257.23255771  .00291535  00000+0  23150-2 0  9998
2 62224  53.1566 251.3861 0001255 130.6206 229.4921 15.69841723 45690
