[{"OBJECT_NAME":"STARLINK-32430","OBJECT_ID":"2024-229R","EPOCH":"2025-09-14T02:36:24.151104","MEAN_MOTION":15.27590311,"ECCENTRICITY":8.161e-5,"INCLINATION":43.0068,"RA_OF_ASC_NODE":184.6634,"ARG_OF_PERICENTER":288.2234,"MEAN_ANOMALY":71.8529,"EPHEMERIS_TYPE":0,"CLASSIFICATION_TYPE":"U","NORAD_CAT_ID":62207,"ELEMENT_SET_NO":999,"REV_AT_EPOCH":4359,"BSTAR":0.00054922412,"MEAN_MOTION_DOT":0.00014886,"MEAN_MOTION_DDOT":0},{"OBJECT_NAME":"STARLINK-32675","OBJECT_ID":"2024-229S","EPOCH":"2025-09-14T02:13:31.153152","MEAN_MOTION":15.2757528,"ECCENTRICITY":0.00033985,"INCLINATION":42.9987,"RA_OF_ASC_NODE":187.9971,"ARG_OF_PERICENTER":280.5135,"MEAN_ANOMALY":79.5334,"EPHEMERIS_TYPE":0,"CLASSIFICATION_TYPE":"U","NORAD_CAT_ID":62208,"ELEMENT_SET_NO":999,"REV_AT_EPOCH":4355,"BSTAR":0.00075407432,"MEAN_MOTION_DOT":0.00020545,"MEAN_MOTION_DDOT":0},{"OBJECT_NAME":"STARLINK-32671","OBJECT_ID":"2024-229T","EPOCH":"2025-09-13T12:57:54.682272","MEAN_MOTION":15.27579928,"ECCENTRICITY":5.124e-5,"INCLINATION":42.9983,"RA_OF_ASC_NODE":191.5903,"ARG_OF_PERICENTER":44.4622,"MEAN_ANOMALY":315.627,"EPHEMERIS_TYPE":0,"CLASSIFICATION_TYPE":"U","NORAD_CAT_ID":62209,"ELEMENT_SET_NO":999,"REV_AT_EPOCH":4346,"BSTAR":0.00088005314,"MEAN_MOTION_DOT":0.00024034,"MEAN_MOTION_DDOT":0},{"OBJECT_NAME":"STARLINK-32670","OBJECT_ID":"2024-229U","EPOCH":"2025-09-14T03:36:34.424352","MEAN_MOTION":15.27597864,"ECCENTRICITY":0.00013737,"INCLINATION":42.9991,"RA_OF_ASC_NODE":187.5719,"ARG_OF_PERICENTER":256.4486,"MEAN_ANOMALY":103.6213,"EPHEMERIS_TYPE":0,"CLASSIFICATION_TYPE":"U","NORAD_CAT_ID":62210,"ELEMENT_SET_NO":999,"REV_AT_EPOCH":4356,"BSTAR":0.00089375669,"MEAN_MOTION_DOT":0.00024427,"MEAN_MOTION_DDOT":0},{"OBJECT_NAME":"STARLINK-32642","OBJECT_ID":"2024-229V","EPOCH":"2025-09-14T05:01:27.036480","MEAN_MOTION":15.27609363,"ECCENTRICITY":0.00015212,"INCLINATION":43.0006,"RA_OF_ASC_NODE":187.1569,"ARG_OF_PERICENTER":260.5316,"MEAN_ANOMALY":99.5363,"EPHEMERIS_TYPE":0,"CLASSIFICATION_TYPE":"U","NORAD_CAT_ID":62211,"ELEMENT_SET_NO":999,"REV_AT_EPOCH":4357,"BSTAR":0.0010605,"MEAN_MOTION_DOT":0.00029062,"MEAN_MOTION_DDOT":0},{"OBJECT_NAME":"STARLINK-32668","OBJECT_ID":"2024-229W","EPOCH":"2025-09-14T02:41:57.179904","MEAN_MOTION":15.27600227,"ECCENTRICITY":8.536e-5,"INCLINATION":43.0002,"RA_OF_ASC_NODE":184.6919,"ARG_OF_PERICENTER":246.9822,"MEAN_ANOMALY":113.094,"EPHEMERIS_TYPE":0,"CLASSIFICATION_TYPE":"U","NORAD_CAT_ID":62212,"ELEMENT_SET_NO":999,"REV_AT_EPOCH":4359,"BSTAR":0.00089308987,"MEAN_MOTION_DOT":0.0002441,"MEAN_MOTION_DDOT":0},{"OBJECT_NAME":"STARLINK-32669","OBJECT_ID":"2024-229X","EPOCH":"2025-09-14T04:24:39.335904","MEAN_MOTION":15.27595806,"ECCENTRICITY":0.00013665,"INCLINATION":42.9998,"RA_OF_ASC_NODE":187.8178,"ARG_OF_PERICENTER":244.5976,"MEAN_ANOMALY":115.4734,"EPHEMERIS_TYPE":0,"CLASSIFICATION_TYPE":"U","NORAD_CAT_ID":62213,"ELEMENT_SET_NO":999,"REV_AT_EPOCH":4356,"BSTAR":0.00060021101,"MEAN_MOTION_DOT":0.00016299,"MEAN_MOTION_DDOT":0},{"OBJECT_NAME":"STARLINK-32666","OBJECT_ID":"2024-229Y","EPOCH":"2025-09-14T04:33:55.115136","MEAN_MOTION":15.27617874,"ECCENTRICITY":0.00013475,"INCLINATION":43.0013,"RA_OF_ASC_NODE":187.8684,"ARG_OF_PERICENTER":256.6346,"MEAN_ANOMALY":103.4356,"EPHEMERIS_TYPE":0,"CLASSIFICATION_TYPE":"U","NORAD_CAT_ID":62214,"ELEMENT_SET_NO":999,"REV_AT_EPOCH":4356,"BSTAR":0.00091655705,"MEAN_MOTION_DOT":0.00025074,"MEAN_MOTION_DDOT":0},{"OBJECT_NAME":"STARLINK-32662","OBJECT_ID":"2024-229Z","EPOCH":"2025-09-14T04:13:33.172032","MEAN_MOTION":15.27598272,"ECCENTRICITY":0.00012318,"INCLINATION":42.9997,"RA_OF_ASC_NODE":187.758,"ARG_OF_PERICENTER":272.5481,"MEAN_ANOMALY":87.523,"EPHEMERIS_TYPE":0,"CLASSIFICATION_TYPE":"U","NORAD_CAT_ID":62215,"ELEMENT_SET_NO":999,"REV_AT_EPOCH":4356,"BSTAR":0.00051310177,"MEAN_MOTION_DOT":0.00013892,"MEAN_MOTION_DDOT":0},{"OBJECT_NAME":"STARLINK-11394 [DTC]","OBJECT_ID":"2024-231A","EPOCH":"2025-09-14T06:38:18.634848","MEAN_MOTION":15.69746868,"ECCENTRICITY":9.881e-5,"INCLINATION":53.1573,"RA_OF_ASC_NODE":250.9335,"ARG_OF_PERICENTER":302.5376,"MEAN_ANOMALY":57.5547,"EPHEMERIS_TYPE":0,"CLASSIFICATION_TYPE":"U","NORAD_CAT_ID":62218,"ELEMENT_SET_NO":999,"REV_AT_EPOCH":4570,"BSTAR":0.0013080806,"MEAN_MOTION_DOT":0.00161246,"MEAN_MOTION_DDOT":0},{"OBJECT_NAME":"STARLINK-11490 [DTC]","OBJECT_ID":"2024-231B","EPOCH":"2025-09-14T06:45:22.468320","MEAN_MOTION":15.69810924,"ECCENTRICITY":0.00024516,"INCLINATION":53.1567,"RA_OF_ASC_NODE":250.9654,"ARG_OF_PERICENTER":103.6786,"MEAN_ANOMALY":256.4505,"EPHEMERIS_TYPE":0,"CLASSIFICATION_TYPE":"U","NORAD_CAT_ID":62219,"ELEMENT_SET_NO":999,"REV_AT_EPOCH":4570,"BSTAR":0.0013769603,"MEAN_MOTION_DOT":0.00170419,"MEAN_MOTION_DDOT":0},{"OBJECT_NAME":"STARLINK-11466 [DTC]","OBJECT_ID":"2024-231C","EPOCH":"2025-09-14T06:59:30.210432","MEAN_MOTION":15.69738248,"ECCENTRICITY":8.038e-5,"INCLINATION":53.1557,"RA_OF_ASC_NODE":251.0294,"ARG_OF_PERICENTER":43.4444,"MEAN_ANOMALY":316.6637,"EPHEMERIS_TYPE":0,"CLASSIFICATION_TYPE":"U","NORAD_CAT_ID":62220,"ELEMENT_SET_NO":999,"REV_AT_EPOCH":4570,"BSTAR":0.0017387409,"MEAN_MOTION_DOT":0.00215883,"MEAN_MOTION_DDOT":0},{"OBJECT_NAME":"STARLINK-11468 [DTC]","OBJECT_ID":"2024-231D","EPOCH":"2025-09-14T05:41:56.649408","MEAN_MOTION":15.69833516,"ECCENTRICITY":9.492e-5,"INCLINATION":53.1565,"RA_OF_ASC_NODE":251.4077,"ARG_OF_PERICENTER":142.9568,"MEAN_ANOMALY":217.1515,"EPHEMERIS_TYPE":0,"CLASSIFICATION_TYPE":"U","NORAD_CAT_ID":62221,"ELEMENT_SET_NO":999,"REV_AT_EPOCH":4569,"BSTAR":0.002228073,"MEAN_MOTION_DOT":0.00280085,"MEAN_MOTION_DDOT":0},{"OBJECT_NAME":"STARLINK-11488 [DTC]","OBJECT_ID":"2024-231E","EPOCH":"2025-09-14T06:52:25.894848","MEAN_MOTION":15.69878709,"ECCENTRICITY":0.00024367,"INCLINATION":53.1566,"RA_OF_ASC_NODE":250.9954,"ARG_OF_PERICENTER":174.2953,"MEAN_ANOMALY":185.8093,"EPHEMERIS_TYPE":0,"CLASSIFICATION_TYPE":"U","NORAD_CAT_ID":62222,"ELEMENT_SET_NO":999,"REV_AT_EPOCH":4570,"BSTAR":0.0014294133,"MEAN_MOTION_DOT":0.00177587,"MEAN_MOTION_DDOT":0},{"OBJECT_NAME":"STARLINK-11483 [DTC]","OBJECT_ID":"2024-231F","EPOCH":"2025-09-14T06:02:59.401824","MEAN_MOTION":15.69847538,"ECCENTRICITY":0.00045156,"INCLINATION":53.1559,"RA_OF_ASC_NODE":250.7702,"ARG_OF_PERICENTER":97.0863,"MEAN_ANOMALY":263.0668,"EPHEMERIS_TYPE":0,"CLASSIFICATION_TYPE":"U","NORAD_CAT_ID":62223,"ELEMENT_SET_NO":999,"REV_AT_EPOCH":4570,"BSTAR":0.0011610099,"MEAN_MOTION_DOT":0.00143391,"MEAN_MOTION_DDOT":0},{"OBJECT_NAME":"STARLINK-11492 [DTC]","OBJECT_ID":"2024-231G","EPOCH":"2025-09-14T05:34:52.986144","MEAN_MOTION":15.69841723,"ECCENTRICITY":0.00012557,"INCLINATION":53.1566,"RA_OF_ASC_NODE":251.3861,"ARG_OF_PERICENTER":130.6206,"MEAN_ANOMALY":229.4921,"EPHEMERIS_TYPE":0,"CLASSIFICATION_TYPE":"U","NORAD_CAT_ID":62224,"ELEMENT_SET_NO":999,"REV_AT_EPOCH":4569,"BSTAR":0.0023149684,"MEAN_MOTION_DOT":0.00291535,"MEAN_MOTION_DDOT":0}]
